FALCONSAT-6             
1 43815U 18099BK  26068.72544389  .00005029  00000+0  19477-3 0  9998
2 43815  97.3865 145.8165 0014370 297.0944 181.0714 15.26532865398556
STARLINK-33735          
1 63474U 25070Q   26068.53103269  .00027957  00000+0  10211-2 0  9995
2 63474  42.9978 260.5626 0001685 278.6437  81.4224 15.27594983 52954
